{
  "type": "FeatureCollection",
  "generator": "overpass-ide",
  "copyright": "The data included in this document is from www.openstreetmap.org. The data is made available under ODbL.",
  "timestamp": "2022-12-31T08:59:30Z",
  "features": [
    {
      "type": "Feature",
      "properties": {
        "@id": "node/2101809721",
        "name": "کتابفروشی دانشگاه اصفهان",
        "name:en": "University of Isfahan",
        "shop": "books"
      },
      "geometry": {
        "type": "Point",
        "coordinates": [
          51.6610219,
          32.6220743
        ]
      },
      "id": "node/2101809721"
    },
    {
      "type": "Feature",
      "properties": {
        "@id": "node/2516151227",
        "name": "کتابسرا",
        "name:en": "Ketabsara",
        "shop": "books"
      },
      "geometry": {
        "type": "Point",
        "coordinates": [
          51.6707108,
          32.65052
        ]
      },
      "id": "node/2516151227"
    },
    {
      "type": "Feature",
      "properties": {
        "@id": "node/3523182795",
        "name": "کتابفروشی جنگل",
        "name:en": "Jungle book store",
        "shop": "books"
      },
      "geometry": {
        "type": "Point",
        "coordinates": [
          51.6660113,
          32.6353372
        ]
      },
      "id": "node/3523182795"
    },
    {
      "type": "Feature",
      "properties": {
        "@id": "node/3652917912",
        "name": "پدرام",
        "name:en": "Pedram",
        "shop": "books"
      },
      "geometry": {
        "type": "Point",
        "coordinates": [
          51.6722471,
          32.631502
        ]
      },
      "id": "node/3652917912"
    },
    {
      "type": "Feature",
      "properties": {
        "@id": "node/4582817890",
        "name": "کتابفروشی گلفام",
        "phone": "+983132224201",
        "shop": "books",
        "website": "http://golfambooks.com/"
      },
      "geometry": {
        "type": "Point",
        "coordinates": [
          51.6704561,
          32.6502787
        ]
      },
      "id": "node/4582817890"
    },
    {
      "type": "Feature",
      "properties": {
        "@id": "node/4637505668",
        "name": "کتاب فروشی بزرگمهر",
        "name:en": "Bozorgmeher",
        "shop": "books"
      },
      "geometry": {
        "type": "Point",
        "coordinates": [
          51.7006543,
          32.6595453
        ]
      },
      "id": "node/4637505668"
    },
    {
      "type": "Feature",
      "properties": {
        "@id": "node/4883982521",
        "addr:street": "خاقانی",
        "name": "کتابفروشی گتارو",
        "name:en": "Bookstore",
        "shop": "books"
      },
      "geometry": {
        "type": "Point",
        "coordinates": [
          51.6522027,
          32.6344805
        ]
      },
      "id": "node/4883982521"
    },
    {
      "type": "Feature",
      "properties": {
        "@id": "node/4903872028",
        "addr:street": "نظر غربی",
        "name": "نوشت افزار",
        "shop": "books"
      },
      "geometry": {
        "type": "Point",
        "coordinates": [
          51.644686,
          32.6380748
        ]
      },
      "id": "node/4903872028"
    },
    {
      "type": "Feature",
      "properties": {
        "@id": "node/4975889121",
        "addr:housenumber": "95.85.5.4",
        "addr:street": "احمد رضا رضوانی",
        "name": "خانه پدری",
        "phone": "03113231236",
        "shop": "books"
      },
      "geometry": {
        "type": "Point",
        "coordinates": [
          51.6189337,
          32.7076798
        ]
      },
      "id": "node/4975889121"
    },
    {
      "type": "Feature",
      "properties": {
        "@id": "node/5022230582",
        "ele": "-1",
        "name": "انتشارات جنگل",
        "name:en": "JunglePub",
        "phone": "+983132239466",
        "shop": "books",
        "website": "https://www.jangal.com/"
      },
      "geometry": {
        "type": "Point",
        "coordinates": [
          51.6706876,
          32.6507611
        ]
      },
      "id": "node/5022230582"
    },
    {
      "type": "Feature",
      "properties": {
        "@id": "node/5024960995",
        "name": "کتب علوم پزشکی کیا",
        "phone": "+983136699112",
        "shop": "books",
        "website": "https://www.instagram.com/kia.book/"
      },
      "geometry": {
        "type": "Point",
        "coordinates": [
          51.6643412,
          32.6199564
        ]
      },
      "id": "node/5024960995"
    },
    {
      "type": "Feature",
      "properties": {
        "@id": "node/5771600453",
        "addr:street": "سردار شهید خلیفه سلطانی",
        "name": "انتشارات جنگل",
        "name:en": "Jungle Publications Store",
        "opening_hours": "Mo-Su 08:00-21:00",
        "shop": "books"
      },
      "geometry": {
        "type": "Point",
        "coordinates": [
          51.621492,
          32.7035355
        ]
      },
      "id": "node/5771600453"
    },
    {
      "type": "Feature",
      "properties": {
        "@id": "node/6005510086",
        "name": "شهر کتاب",
        "name:en": "Shahr-e Ketab",
        "shop": "books"
      },
      "geometry": {
        "type": "Point",
        "coordinates": [
          51.6549745,
          32.6474427
        ]
      },
      "id": "node/6005510086"
    },
    {
      "type": "Feature",
      "properties": {
        "@id": "node/6128158996",
        "shop": "books"
      },
      "geometry": {
        "type": "Point",
        "coordinates": [
          51.6681698,
          32.6653629
        ]
      },
      "id": "node/6128158996"
    },
    {
      "type": "Feature",
      "properties": {
        "@id": "node/6442456785",
        "name": "فروشگاه بهار",
        "shop": "books"
      },
      "geometry": {
        "type": "Point",
        "coordinates": [
          51.6140824,
          32.7028478
        ]
      },
      "id": "node/6442456785"
    },
    {
      "type": "Feature",
      "properties": {
        "@id": "node/6477205086",
        "name": "فروشگاه یاسر",
        "shop": "books"
      },
      "geometry": {
        "type": "Point",
        "coordinates": [
          51.6048253,
          32.6846599
        ]
      },
      "id": "node/6477205086"
    },
    {
      "type": "Feature",
      "properties": {
        "@id": "node/7206563742",
        "name": "کتاب زبانسرا",
        "shop": "books"
      },
      "geometry": {
        "type": "Point",
        "coordinates": [
          51.6599996,
          32.7029139
        ]
      },
      "id": "node/7206563742"
    },
    {
      "type": "Feature",
      "properties": {
        "@id": "node/7208715167",
        "name": "کتابفروشی فرهنگسرای اصفهان",
        "shop": "books"
      },
      "geometry": {
        "type": "Point",
        "coordinates": [
          51.6688857,
          32.6567847
        ]
      },
      "id": "node/7208715167"
    },
    {
      "type": "Feature",
      "properties": {
        "@id": "node/9821621798",
        "name": "کتابفروشی عصر کتاب",
        "shop": "books"
      },
      "geometry": {
        "type": "Point",
        "coordinates": [
          51.6311431,
          32.6298076
        ]
      },
      "id": "node/9821621798"
    },
    {
      "type": "Feature",
      "properties": {
        "@id": "node/9823339510",
        "name": "کتاب سرای یاس",
        "shop": "books"
      },
      "geometry": {
        "type": "Point",
        "coordinates": [
          51.652593,
          32.625718
        ]
      },
      "id": "node/9823339510"
    },
    {
      "type": "Feature",
      "properties": {
        "@id": "node/9880378447",
        "name": "کتاب فروشی نوبهار",
        "phone": "+98 31 3222 9012",
        "shop": "books"
      },
      "geometry": {
        "type": "Point",
        "coordinates": [
          51.6700878,
          32.6623921
        ]
      },
      "id": "node/9880378447"
    },
    {
      "type": "Feature",
      "properties": {
        "@id": "node/9880378458",
        "name": "کتاب سرای حکمت",
        "phone": "+98 31 3224 0608",
        "shop": "books"
      },
      "geometry": {
        "type": "Point",
        "coordinates": [
          51.6701565,
          32.6628257
        ]
      },
      "id": "node/9880378458"
    },
    {
      "type": "Feature",
      "properties": {
        "@id": "node/9880378461",
        "name": "انتشارات مهر قائم",
        "shop": "books"
      },
      "geometry": {
        "type": "Point",
        "coordinates": [
          51.6697928,
          32.6599425
        ]
      },
      "id": "node/9880378461"
    },
    {
      "type": "Feature",
      "properties": {
        "@id": "node/9880378487",
        "name": "کتاب خانه مهدویت حضرت ولی عصر",
        "shop": "books"
      },
      "geometry": {
        "type": "Point",
        "coordinates": [
          51.6699097,
          32.660947
        ]
      },
      "id": "node/9880378487"
    },
    {
      "type": "Feature",
      "properties": {
        "@id": "node/9881578491",
        "name": "کتاب البرز",
        "shop": "books"
      },
      "geometry": {
        "type": "Point",
        "coordinates": [
          51.6718169,
          32.6305753
        ]
      },
      "id": "node/9881578491"
    }
  ]
}
